[{"OBJECT_NAME":"STARLINK-3291","OBJECT_ID":"2021-125V","EPOCH":"2026-03-09T16:57:13.404096","MEAN_MOTION":15.08837256,"ECCENTRICITY":0.00013431,"INCLINATION":53.2169,"RA_OF_ASC_NODE":249.0469,"ARG_OF_PERICENTER":88.267,"MEAN_ANOMALY":271.8476,"EPHEMERIS_TYPE":0,"CLASSIFICATION_TYPE":"U","NORAD_CAT_ID":50175,"ELEMENT_SET_NO":999,"REV_AT_EPOCH":23660,"BSTAR":1.9004859e-5,"MEAN_MOTION_DOT":1.5e-7,"MEAN_MOTION_DDOT":0},{"OBJECT_NAME":"OBJECT J","OBJECT_ID":"2017-042J","EPOCH":"2026-03-09T23:17:19.167936","MEAN_MOTION":15.08203331,"ECCENTRICITY":0.00078186,"INCLINATION":97.4246,"RA_OF_ASC_NODE":235.0467,"ARG_OF_PERICENTER":81.5059,"MEAN_ANOMALY":278.7055,"EPHEMERIS_TYPE":0,"CLASSIFICATION_TYPE":"U","NORAD_CAT_ID":42833,"ELEMENT_SET_NO":999,"REV_AT_EPOCH":47205,"BSTAR":0.00039182004,"MEAN_MOTION_DOT":6.006e-5,"MEAN_MOTION_DDOT":0}]
